{
    "links": {
        "self": "http://www.neowsapp.com/rest/v1/neo/3314252?api_key=iIulBulltgU6a56xZRHN4H3l9WmuAYTsLGpBGhQ2"
    },
    "id": "3314252",
    "neo_reference_id": "3314252",
    "name": "(2006 BG99)",
    "designation": "2006 BG99",
    "nasa_jpl_url": "http://ssd.jpl.nasa.gov/sbdb.cgi?sstr=3314252",
    "absolute_magnitude_h": 25.7,
    "estimated_diameter": {
        "kilometers": {
            "estimated_diameter_min": 0.0192555078,
            "estimated_diameter_max": 0.0430566244
        },
        "meters": {
            "estimated_diameter_min": 19.2555078188,
            "estimated_diameter_max": 43.0566244241
        },
        "miles": {
            "estimated_diameter_min": 0.0119648141,
            "estimated_diameter_max": 0.0267541378
        },
        "feet": {
            "estimated_diameter_min": 63.1742402722,
            "estimated_diameter_max": 141.2618956756
        }
    },
    "is_potentially_hazardous_asteroid": false,
    "close_approach_data": [
        {
            "close_approach_date": "2000-11-21",
            "close_approach_date_full": "2000-Nov-21 07:40",
            "epoch_date_close_approach": 974792400000,
            "relative_velocity": {
                "kilometers_per_second": "11.78317209",
                "kilometers_per_hour": "42419.4195239989",
                "miles_per_hour": "26357.7776481203"
            },
            "miss_distance": {
                "astronomical": "0.2862511074",
                "lunar": "111.3516807786",
                "kilometers": "42822555.952181238",
                "miles": "26608702.4067595644"
            },
            "orbiting_body": "Earth"
        },
        {
            "close_approach_date": "2006-01-08",
            "close_approach_date_full": "2006-Jan-08 09:05",
            "epoch_date_close_approach": 1136711100000,
            "relative_velocity": {
                "kilometers_per_second": "4.1010633397",
                "kilometers_per_hour": "14763.8280229305",
                "miles_per_hour": "9173.6685845815"
            },
            "miss_distance": {
                "astronomical": "0.0461284104",
                "lunar": "17.9439516456",
                "kilometers": "6900711.942325848",
                "miles": "4287903.5682307824"
            },
            "orbiting_body": "Earth"
        },
        {
            "close_approach_date": "2011-02-09",
            "close_approach_date_full": "2011-Feb-09 15:23",
            "epoch_date_close_approach": 1297264980000,
            "relative_velocity": {
                "kilometers_per_second": "10.0691199869",
                "kilometers_per_hour": "36248.8319528576",
                "miles_per_hour": "22523.6144987076"
            },
            "miss_distance": {
                "astronomical": "0.2090516378",
                "lunar": "81.3210871042",
                "kilometers": "31273679.734891486",
                "miles": "19432563.4873190668"
            },
            "orbiting_body": "Earth"
        }
    ],
    "orbital_data": {
        "orbit_id": "8",
        "orbit_determination_date": "2017-04-06 09:09:13",
        "first_observation_date": "2006-01-28",
        "last_observation_date": "2006-02-06",
        "data_arc_in_days": 9,
        "observations_used": 21,
        "orbit_uncertainty": "8",
        "minimum_orbit_intersection": ".0381646",
        "jupiter_tisserand_invariant": "4.677",
        "epoch_osculation": "2453765.5",
        "eccentricity": ".2867087450877484",
        "semi_major_axis": "1.413099612608328",
        "inclination": "4.684310844412845",
        "ascending_node_longitude": "131.456782860004",
        "orbital_period": "613.5607828145821",
        "perihelion_distance": "1.007951595993411",
        "perihelion_argument": "330.0374663153696",
        "aphelion_distance": "1.818247629223245",
        "perihelion_time": "2453737.041379074628",
        "mean_anomaly": "16.69778092096539",
        "mean_motion": ".5867389345658226",
        "equinox": "J2000",
        "orbit_class": {
            "orbit_class_type": "APO",
            "orbit_class_description": "Near-Earth asteroid orbits which cross the Earth’s orbit similar to that of 1862 Apollo",
            "orbit_class_range": "a (semi-major axis) > 1.0 AU; q (perihelion) < 1.017 AU"
        }
    },
    "is_sentry_object": false
}